{
  "type": "FeatureCollection",
  "features": [
    {
      "type": "Feature",
      "properties": {
        "norad_id": 28899,
        "name": "INMARSAT 4-F2 (SOUTHPAN/PRN 122)",
        "group": "gnss",
        "lat": 1.4686633753309852,
        "lon": -154.02259369329383,
        "alt_km": 35778.92799556251,
        "timestamp": "2025-12-12T22:42:12.787603+00:00",
        "meta_object_name": "INMARSAT 4-F2 (SOUTHPAN/PRN 122)",
        "meta_object_id": "2005-044A",
        "meta_epoch": "2025-12-11T14:11:33.648288",
        "meta_mean_motion": 1.0027245,
        "meta_eccentricity": 0.00029491,
        "meta_inclination": 4.851,
        "meta_ra_of_asc_node": 43.6899,
        "meta_arg_of_pericenter": 218.6524,
        "meta_mean_anomaly": 174.6046,
        "meta_ephemeris_type": 0,
        "meta_classification_type": "U",
        "meta_norad_cat_id": 28899,
        "meta_element_set_no": 999,
        "meta_rev_at_epoch": 7364,
        "meta_bstar": 0,
        "meta_mean_motion_dot": -2.55e-06,
        "meta_mean_motion_ddot": 0,
        "tle_line1": "1 28899U 05044A   25345.59136167 -.00000255  00000+0  00000+0 0  9997",
        "tle_line2": "2 28899   4.8510  43.6899 0002949 218.6524 174.6046  1.00272450 73646"
      },
      "geometry": {
        "type": "Point",
        "coordinates": [
          -154.02259369329383,
          1.4686633753309852
        ]
      }
    },
    {
      "type": "Feature",
      "properties": {
        "norad_id": 29486,
        "name": "GPS BIIRM-2 (PRN 31)",
        "group": "gnss",
        "lat": -43.75507312113666,
        "lon": 115.98497751864018,
        "alt_km": 20282.623206614684,
        "timestamp": "2025-12-12T22:42:12.787616+00:00",
        "meta_object_name": "GPS BIIRM-2 (PRN 31)",
        "meta_object_id": "2006-042A",
        "meta_epoch": "2025-12-11T18:34:08.503392",
        "meta_mean_motion": 2.00554182,
        "meta_eccentricity": 0.0107356,
        "meta_inclination": 54.6941,
        "meta_ra_of_asc_node": 158.779,
        "meta_arg_of_pericenter": 51.9381,
        "meta_mean_anomaly": 124.8587,
        "meta_ephemeris_type": 0,
        "meta_classification_type": "U",
        "meta_norad_cat_id": 29486,
        "meta_element_set_no": 999,
        "meta_rev_at_epoch": 14063,
        "meta_bstar": 0,
        "meta_mean_motion_dot": 9.1e-07,
        "meta_mean_motion_ddot": 0,
        "tle_line1": "1 29486U 06042A   25345.77370953  .00000091  00000+0  00000+0 0  9999",
        "tle_line2": "2 29486  54.6941 158.7790 0107356  51.9381 124.8587  2.00554182140632"
      },
      "geometry": {
        "type": "Point",
        "coordinates": [
          115.98497751864018,
          -43.75507312113666
        ]
      }
    },
    {
      "type": "Feature",
      "properties": {
        "norad_id": 29601,
        "name": "GPS BIIRM-3 (PRN 12)",
        "group": "gnss",
        "lat": -0.16787334338142978,
        "lon": -138.7203439716736,
        "alt_km": 20169.83416394964,
        "timestamp": "2025-12-12T22:42:12.787628+00:00",
        "meta_object_name": "GPS BIIRM-3 (PRN 12)",
        "meta_object_id": "2006-052A",
        "meta_epoch": "2025-12-10T22:50:57.052608",
        "meta_mean_motion": 2.00573438,
        "meta_eccentricity": 0.00877231,
        "meta_inclination": 54.9709,
        "meta_ra_of_asc_node": 221.4692,
        "meta_arg_of_pericenter": 87.4136,
        "meta_mean_anomaly": 273.6655,
        "meta_ephemeris_type": 0,
        "meta_classification_type": "U",
        "meta_norad_cat_id": 29601,
        "meta_element_set_no": 999,
        "meta_rev_at_epoch": 13963,
        "meta_bstar": 0,
        "meta_mean_motion_dot": 3e-08,
        "meta_mean_motion_ddot": 0,
        "tle_line1": "1 29601U 06052A   25344.95204922  .00000003  00000+0  00000+0 0  9993",
        "tle_line2": "2 29601  54.9709 221.4692 0087723  87.4136 273.6655  2.00573438139634"
      },
      "geometry": {
        "type": "Point",
        "coordinates": [
          -138.7203439716736,
          -0.16787334338142978
        ]
      }
    },
    {
      "type": "Feature",
      "properties": {
        "norad_id": 32260,
        "name": "GPS BIIRM-4 (PRN 15)",
        "group": "gnss",
        "lat": 29.520616316782515,
        "lon": -116.57548192178828,
        "alt_km": 19937.536318197355,
        "timestamp": "2025-12-12T22:42:12.787640+00:00",
        "meta_object_name": "GPS BIIRM-4 (PRN 15)",
        "meta_object_id": "2007-047A",
        "meta_epoch": "2025-12-11T06:11:12.991200",
        "meta_mean_motion": 2.00564547,
        "meta_eccentricity": 0.0164204,
        "meta_inclination": 53.9543,
        "meta_ra_of_asc_node": 87.8198,
        "meta_arg_of_pericenter": 85.2289,
        "meta_mean_anomaly": 276.6392,
        "meta_ephemeris_type": 0,
        "meta_classification_type": "U",
        "meta_norad_cat_id": 32260,
        "meta_element_set_no": 999,
        "meta_rev_at_epoch": 13304,
        "meta_bstar": 0,
        "meta_mean_motion_dot": -2.3e-07,
        "meta_mean_motion_ddot": 0,
        "tle_line1": "1 32260U 07047A   25345.25778925 -.00000023  00000+0  00000+0 0  9999",
        "tle_line2": "2 32260  53.9543  87.8198 0164204  85.2289 276.6392  2.00564547133045"
      },
      "geometry": {
        "type": "Point",
        "coordinates": [
          -116.57548192178828,
          29.520616316782515
        ]
      }
    },
    {
      "type": "Feature",
      "properties": {
        "norad_id": 32275,
        "name": "COSMOS 2433 (720)",
        "group": "gnss",
        "lat": -58.87272778501924,
        "lon": -169.33814550400604,
        "alt_km": 19121.93068845419,
        "timestamp": "2025-12-12T22:42:12.787653+00:00",
        "meta_object_name": "COSMOS 2433 (720)",
        "meta_object_id": "2007-052A",
        "meta_epoch": "2025-12-10T06:34:19.673184",
        "meta_mean_motion": 2.13103813,
        "meta_eccentricity": 0.00055546,
        "meta_inclination": 65.6847,
        "meta_ra_of_asc_node": 322.2886,
        "meta_arg_of_pericenter": 252.6006,
        "meta_mean_anomaly": 107.3381,
        "meta_ephemeris_type": 0,
        "meta_classification_type": "U",
        "meta_norad_cat_id": 32275,
        "meta_element_set_no": 999,
        "meta_rev_at_epoch": 14103,
        "meta_bstar": 0,
        "meta_mean_motion_dot": -5e-07,
        "meta_mean_motion_ddot": 0,
        "tle_line1": "1 32275U 07052A   25344.27383881 -.00000050  00000+0  00000+0 0  9995",
        "tle_line2": "2 32275  65.6847 322.2886 0005554 252.6006 107.3381  2.13103813141032"
      },
      "geometry": {
        "type": "Point",
        "coordinates": [
          -169.33814550400604,
          -58.87272778501924
        ]
      }
    },
    {
      "type": "Feature",
      "properties": {
        "norad_id": 32276,
        "name": "COSMOS 2432 (719)",
        "group": "gnss",
        "lat": -13.035404643850926,
        "lon": 148.31740818628225,
        "alt_km": 19145.130135229545,
        "timestamp": "2025-12-12T22:42:12.787665+00:00",
        "meta_object_name": "COSMOS 2432 (719)",
        "meta_object_id": "2007-052B",
        "meta_epoch": "2025-12-10T13:56:19.351392",
        "meta_mean_motion": 2.13102999,
        "meta_eccentricity": 0.0011254,
        "meta_inclination": 65.7001,
        "meta_ra_of_asc_node": 322.4023,
        "meta_arg_of_pericenter": 311.5771,
        "meta_mean_anomaly": 228.309,
        "meta_ephemeris_type": 0,
        "meta_classification_type": "U",
        "meta_norad_cat_id": 32276,
        "meta_element_set_no": 999,
        "meta_rev_at_epoch": 14106,
        "meta_bstar": 0,
        "meta_mean_motion_dot": -5e-07,
        "meta_mean_motion_ddot": 0,
        "tle_line1": "1 32276U 07052B   25344.58077953 -.00000050  00000+0  00000+0 0  9990",
        "tle_line2": "2 32276  65.7001 322.4023 0011254 311.5771 228.3090  2.13102999141067"
      },
      "geometry": {
        "type": "Point",
        "coordinates": [
          148.31740818628225,
          -13.035404643850926
        ]
      }
    },
    {
      "type": "Feature",
      "properties": {
        "norad_id": 32384,
        "name": "GPS BIIRM-5 (PRN 29)",
        "group": "gnss",
        "lat": -55.19406988076303,
        "lon": -167.61061636109082,
        "alt_km": 20213.075912278535,
        "timestamp": "2025-12-12T22:42:12.787677+00:00",
        "meta_object_name": "GPS BIIRM-5 (PRN 29)",
        "meta_object_id": "2007-062A",
        "meta_epoch": "2025-12-11T19:20:30.701760",
        "meta_mean_motion": 2.00577226,
        "meta_eccentricity": 0.00322349,
        "meta_inclination": 55.183,
        "meta_ra_of_asc_node": 281.6834,
        "meta_arg_of_pericenter": 162.4856,
        "meta_mean_anomaly": 4.3365,
        "meta_ephemeris_type": 0,
        "meta_classification_type": "U",
        "meta_norad_cat_id": 32384,
        "meta_element_set_no": 999,
        "meta_rev_at_epoch": 13175,
        "meta_bstar": 0,
        "meta_mean_motion_dot": -7.4e-07,
        "meta_mean_motion_ddot": 0,
        "tle_line1": "1 32384U 07062A   25345.80591090 -.00000074  00000+0  00000+0 0  9996",
        "tle_line2": "2 32384  55.1830 281.6834 0032234 162.4856   4.3365  2.00577226131751"
      },
      "geometry": {
        "type": "Point",
        "coordinates": [
          -167.61061636109082,
          -55.19406988076303
        ]
      }
    }
  ]
}